start=new Date('2023-05-22T00:00:00.000Z').valueOf();
sats=[{"PERIAPSIS":"538.903","INCLINATION":"53.2173","RA_OF_ASC_NODE":"53.8434","SITE":"AFETR","ECCENTRICITY":"0.00011360","REV_AT_EPOCH":"8227","REF_FRAME":"TEME","MEAN_ANOMALY":"274.3573","MEAN_ELEMENT_THEORY":"SGP4","MEAN_MOTION":"15.08858523","TLE_LINE1":"1 49766U 21115AU  23141.17955659  .00001833  00000-0  13315-3 0  9991","DECAY_DATE":null,"FILE":"3913423","MEAN_MOTION_DOT":"0.00001833","ARG_OF_PERICENTER":"85.7549","TIME_SYSTEM":"UTC","NORAD_CAT_ID":"49766","GP_ID":"232219352","APOAPSIS":"540.475","MEAN_MOTION_DDOT":"0.0000000000000","OBJECT_TYPE":"PAYLOAD","CLASSIFICATION_TYPE":"U","PERIOD":"95.436","LAUNCH_DATE":"2021-12-02","OBJECT_NAME":"STARLINK-3190","RCS_SIZE":"LARGE","EPOCH":"2023-05-21T04:18:33.689376","CENTER_NAME":"EARTH","ELEMENT_SET_NO":"999","SEMIMAJOR_AXIS":"6917.824","OBJECT_ID":"2021-115AU","EPHEMERIS_TYPE":"0","BSTAR":"0.00013315000000","TLE_LINE2":"2 49766  53.2173  53.8434 0001136  85.7549 274.3573 15.08858523 82276","COUNTRY_CODE":"US"},{"TLE_LINE2":"2 49767  53.2181  54.4623 0001092  93.3520 266.7597 15.08852406 81148","COUNTRY_CODE":"US","BSTAR":"0.00008557100000","EPHEMERIS_TYPE":"0","SEMIMAJOR_AXIS":"6917.842","OBJECT_ID":"2021-115AV","ELEMENT_SET_NO":"999","CENTER_NAME":"EARTH","RCS_SIZE":"LARGE","EPOCH":"2023-05-21T00:55:49.314144","OBJECT_NAME":"STARLINK-3192","LAUNCH_DATE":"2021-12-02","CLASSIFICATION_TYPE":"U","PERIOD":"95.437","APOAPSIS":"540.463","MEAN_MOTION_DDOT":"0.0000000000000","OBJECT_TYPE":"PAYLOAD","GP_ID":"232248050","NORAD_CAT_ID":"49767","TIME_SYSTEM":"UTC","ARG_OF_PERICENTER":"93.3520","MEAN_MOTION_DOT":"0.00001075","FILE":"3913738","DECAY_DATE":null,"MEAN_MOTION":"15.08852406","TLE_LINE1":"1 49767U 21115AV  23141.03876521  .00001075  00000-0  85571-4 0  9999","MEAN_ELEMENT_THEORY":"SGP4","MEAN_ANOMALY":"266.7597","REF_FRAME":"TEME","REV_AT_EPOCH":"8114","ECCENTRICITY":"0.00010920","RA_OF_ASC_NODE":"54.4623","SITE":"AFETR","PERIAPSIS":"538.952","INCLINATION":"53.2181"},{"COUNTRY_CODE":"US","TLE_LINE2":"2 49768  53.2183  54.3972 0001107  79.4378 280.6738 15.08856868 82251","BSTAR":"0.00018101000000","EPHEMERIS_TYPE":"0","SEMIMAJOR_AXIS":"6917.829","OBJECT_ID":"2021-115AW","ELEMENT_SET_NO":"999","CENTER_NAME":"EARTH","RCS_SIZE":"LARGE","EPOCH":"2023-05-21T01:17:00.792096","OBJECT_NAME":"STARLINK-3196","LAUNCH_DATE":"2021-12-02","CLASSIFICATION_TYPE":"U","PERIOD":"95.436","APOAPSIS":"540.460","MEAN_MOTION_DDOT":"0.0000000000000","OBJECT_TYPE":"PAYLOAD","GP_ID":"232219358","NORAD_CAT_ID":"49768","ARG_OF_PERICENTER":"79.4378","TIME_SYSTEM":"UTC","MEAN_MOTION_DOT":"0.00002595","FILE":"3913423","DECAY_DATE":null,"MEAN_MOTION":"15.08856868","TLE_LINE1":"1 49768U 21115AW  23141.05348139  .00002595  00000-0  18101-3 0  9993","MEAN_ANOMALY":"280.6738","MEAN_ELEMENT_THEORY":"SGP4","REF_FRAME":"TEME","REV_AT_EPOCH":"8225","ECCENTRICITY":"0.00011070","RA_OF_ASC_NODE":"54.3972","SITE":"AFETR","PERIAPSIS":"538.928","INCLINATION":"53.2183"},{"REV_AT_EPOCH":"8126","REF_FRAME":"TEME","MEAN_ANOMALY":"265.1759","MEAN_ELEMENT_THEORY":"SGP4","MEAN_MOTION":"15.08831168","TLE_LINE1":"1 49769U 21115AX  23141.84935028 -.00002236  00000-0 -12252-3 0  9995","PERIAPSIS":"539.310","INCLINATION":"53.2180","RA_OF_ASC_NODE":"50.8797","SITE":"AFETR","ECCENTRICITY":"0.00006690","ARG_OF_PERICENTER":"94.9310","TIME_SYSTEM":"UTC","NORAD_CAT_ID":"49769","GP_ID":"232283021","DECAY_DATE":null,"FILE":"3914061","MEAN_MOTION_DOT":"-0.00002236","LAUNCH_DATE":"2021-12-02","OBJECT_NAME":"STARLINK-3208","RCS_SIZE":"LARGE","EPOCH":"2023-05-21T20:23:03.864192","APOAPSIS":"540.235","MEAN_MOTION_DDOT":"0.0000000000000","OBJECT_TYPE":"PAYLOAD","CLASSIFICATION_TYPE":"U","PERIOD":"95.438","BSTAR":"-0.00012252000000","TLE_LINE2":"2 49769  53.2180  50.8797 0000669  94.9310 265.1759 15.08831168 81262","COUNTRY_CODE":"US","CENTER_NAME":"EARTH","ELEMENT_SET_NO":"999","SEMIMAJOR_AXIS":"6917.907","OBJECT_ID":"2021-115AX","EPHEMERIS_TYPE":"0"},{"OBJECT_TYPE":"PAYLOAD","APOAPSIS":"540.440","MEAN_MOTION_DDOT":"0.0000000000000","PERIOD":"95.436","CLASSIFICATION_TYPE":"U","OBJECT_NAME":"STARLINK-3191","EPOCH":"2023-05-21T01:29:00.159360","RCS_SIZE":"LARGE","LAUNCH_DATE":"2021-12-02","OBJECT_ID":"2021-115AY","SEMIMAJOR_AXIS":"6917.823","EPHEMERIS_TYPE":"0","CENTER_NAME":"EARTH","ELEMENT_SET_NO":"999","BSTAR":"0.00024061000000","TLE_LINE2":"2 49770  53.2168  54.4133 0001086  95.9477 264.1639 15.08858652 82267","COUNTRY_CODE":"US","SITE":"AFETR","RA_OF_ASC_NODE":"54.4133","ECCENTRICITY":"0.00010860","INCLINATION":"53.2168","PERIAPSIS":"538.937","MEAN_ANOMALY":"264.1639","MEAN_ELEMENT_THEORY":"SGP4","TLE_LINE1":"1 49770U 21115AY  23141.06180740  .00003545  00000-0  24061-3 0  9997","MEAN_MOTION":"15.08858652","REV_AT_EPOCH":"8226","REF_FRAME":"TEME","MEAN_MOTION_DOT":"0.00003545","DECAY_DATE":null,"FILE":"3913738","NORAD_CAT_ID":"49770","GP_ID":"232247800","TIME_SYSTEM":"UTC","ARG_OF_PERICENTER":"95.9477"},{"CLASSIFICATION_TYPE":"U","PERIOD":"95.437","APOAPSIS":"540.540","MEAN_MOTION_DDOT":"0.0000000000000","OBJECT_TYPE":"PAYLOAD","LAUNCH_DATE":"2021-12-02","RCS_SIZE":"LARGE","EPOCH":"2023-05-21T03:02:59.923680","OBJECT_NAME":"STARLINK-3201","ELEMENT_SET_NO":"999","CENTER_NAME":"EARTH","EPHEMERIS_TYPE":"0","SEMIMAJOR_AXIS":"6917.831","OBJECT_ID":"2021-115AZ","COUNTRY_CODE":"US","TLE_LINE2":"2 49771  53.2185  54.0727 0001220  95.2498 264.8634 15.08856274 82268","BSTAR":"0.00011422000000","PERIAPSIS":"538.852","INCLINATION":"53.2185","ECCENTRICITY":"0.00012200","RA_OF_ASC_NODE":"54.0727","SITE":"AFETR","REF_FRAME":"TEME","REV_AT_EPOCH":"8226","MEAN_MOTION":"15.08856274","TLE_LINE1":"1 49771U 21115AZ  23141.12708245  .00001531  00000-0  11422-3 0  9991","MEAN_ELEMENT_THEORY":"SGP4","MEAN_ANOMALY":"264.8634","FILE":"3913423","DECAY_DATE":null,"MEAN_MOTION_DOT":"0.00001531","ARG_OF_PERICENTER":"95.2498","TIME_SYSTEM":"UTC","GP_ID":"232219360","NORAD_CAT_ID":"49771"},{"MEAN_MOTION":"15.08847690","TLE_LINE1":"1 50156U 21125A   23141.34240694  .00001907  00000-0  13784-3 0  9994","MEAN_ELEMENT_THEORY":"SGP4","MEAN_ANOMALY":"268.1922","REF_FRAME":"TEME","REV_AT_EPOCH":"8214","ECCENTRICITY":"0.00010300","RA_OF_ASC_NODE":"163.1010","SITE":"AFWTR","PERIAPSIS":"539.009","INCLINATION":"53.2158","GP_ID":"232247563","NORAD_CAT_ID":"50156","ARG_OF_PERICENTER":"91.9188","TIME_SYSTEM":"UTC","MEAN_MOTION_DOT":"0.00001907","FILE":"3913738","DECAY_DATE":null,"RCS_SIZE":"LARGE","EPOCH":"2023-05-21T08:13:03.959616","OBJECT_NAME":"STARLINK-3317","LAUNCH_DATE":"2021-12-18","CLASSIFICATION_TYPE":"U","PERIOD":"95.437","APOAPSIS":"540.434","MEAN_MOTION_DDOT":"0.0000000000000","OBJECT_TYPE":"PAYLOAD","TLE_LINE2":"2 50156  53.2158 163.1010 0001030  91.9188 268.1922 15.08847690 82148","COUNTRY_CODE":"US","BSTAR":"0.00013784000000","EPHEMERIS_TYPE":"0","SEMIMAJOR_AXIS":"6917.857","OBJECT_ID":"2021-125A","ELEMENT_SET_NO":"999","CENTER_NAME":"EARTH"},{"TLE_LINE1":"1 50157U 21125B   23141.36628926  .00001598  00000-0  11845-3 0  9997","MEAN_MOTION":"15.08848083","MEAN_ANOMALY":"263.8266","MEAN_ELEMENT_THEORY":"SGP4","REF_FRAME":"TEME","REV_AT_EPOCH":"8201","ECCENTRICITY":"0.00010260","SITE":"AFWTR","RA_OF_ASC_NODE":"172.9953","INCLINATION":"53.2155","PERIAPSIS":"539.011","GP_ID":"232248814","NORAD_CAT_ID":"50157","TIME_SYSTEM":"UTC","ARG_OF_PERICENTER":"96.2843","MEAN_MOTION_DOT":"0.00001598","FILE":"3913738","DECAY_DATE":null,"EPOCH":"2023-05-21T08:47:27.392064","RCS_SIZE":"LARGE","OBJECT_NAME":"STARLINK-3313","LAUNCH_DATE":"2021-12-18","PERIOD":"95.437","CLASSIFICATION_TYPE":"U","OBJECT_TYPE":"PAYLOAD","APOAPSIS":"540.430","MEAN_MOTION_DDOT":"0.0000000000000","COUNTRY_CODE":"US","TLE_LINE2":"2 50157  53.2155 172.9953 0001026  96.2843 263.8266 15.08848083 82017","BSTAR":"0.00011845000000","EPHEMERIS_TYPE":"0","OBJECT_ID":"2021-125B","SEMIMAJOR_AXIS":"6917.856","ELEMENT_SET_NO":"999","CENTER_NAME":"EARTH"},{"TLE_LINE2":"2 50158  53.2155 170.9682 0001145  84.0025 276.1097 15.08842464 82100","COUNTRY_CODE":"US","BSTAR":"0.00004025900000","EPHEMERIS_TYPE":"0","OBJECT_ID":"2021-125C","SEMIMAJOR_AXIS":"6917.873","ELEMENT_SET_NO":"999","CENTER_NAME":"EARTH","EPOCH":"2023-05-21T19:40:38.640288","RCS_SIZE":"LARGE","OBJECT_NAME":"STARLINK-3309","LAUNCH_DATE":"2021-12-18","PERIOD":"95.437","CLASSIFICATION_TYPE":"U","OBJECT_TYPE":"PAYLOAD","APOAPSIS":"540.530","MEAN_MOTION_DDOT":"0.0000000000000","GP_ID":"232282533","NORAD_CAT_ID":"50158","TIME_SYSTEM":"UTC","ARG_OF_PERICENTER":"84.0025","MEAN_MOTION_DOT":"0.00000353","FILE":"3914061","DECAY_DATE":null,"TLE_LINE1":"1 50158U 21125C   23141.81989167  .00000353  00000-0  40259-4 0  9995","MEAN_MOTION":"15.08842464","MEAN_ELEMENT_THEORY":"SGP4","MEAN_ANOMALY":"276.1097","REF_FRAME":"TEME","REV_AT_EPOCH":"8210","ECCENTRICITY":"0.00011450","SITE":"AFWTR","RA_OF_ASC_NODE":"170.9682","INCLINATION":"53.2155","PERIAPSIS":"538.946"},{"CENTER_NAME":"EARTH","ELEMENT_SET_NO":"999","SEMIMAJOR_AXIS":"6917.873","OBJECT_ID":"2021-125D","EPHEMERIS_TYPE":"0","BSTAR":"0.00005158800000","COUNTRY_CODE":"US","TLE_LINE2":"2 50159  53.2153 170.9879 0001006  86.4476 273.6631 15.08842405 82032","APOAPSIS":"540.434","MEAN_MOTION_DDOT":"0.0000000000000","OBJECT_TYPE":"PAYLOAD","CLASSIFICATION_TYPE":"U","PERIOD":"95.437","LAUNCH_DATE":"2021-12-18","OBJECT_NAME":"STARLINK-3297","RCS_SIZE":"LARGE","EPOCH":"2023-05-21T19:35:20.760864","DECAY_DATE":null,"FILE":"3914061","MEAN_MOTION_DOT":"0.00000533","ARG_OF_PERICENTER":"86.4476","TIME_SYSTEM":"UTC","NORAD_CAT_ID":"50159","GP_ID":"232283284","PERIAPSIS":"539.042","INCLINATION":"53.2153","RA_OF_ASC_NODE":"170.9879","SITE":"AFWTR","ECCENTRICITY":"0.00010060","REV_AT_EPOCH":"8203","REF_FRAME":"TEME","MEAN_ANOMALY":"273.6631","MEAN_ELEMENT_THEORY":"SGP4","MEAN_MOTION":"15.08842405","TLE_LINE1":"1 50159U 21125D   23141.81621251  .00000533  00000-0  51588-4 0  9990"}];
